{"type": "FeatureCollection", "features": [ {"type": "Feature", "properties": {"norad_id": 42969, "name": "SENTINEL-5P", "group": "resource", "lat": -46.30950725648315, "lon": -74.57268095862214, "alt_km": 834.1787349751639, "timestamp": "2025-12-03T10:52:57.107344+00:00", "meta": {"OBJECT_NAME": "SENTINEL-5P", "OBJECT_ID": "2017-064A", "EPOCH": "2025-12-03T02:38:43.128096", "MEAN_MOTION": 14.19513401, "ECCENTRICITY": 9.45e-05, "INCLINATION": 98.7769, "RA_OF_ASC_NODE": 275.7804, "ARG_OF_PERICENTER": 85.6828, "MEAN_ANOMALY": 274.4456, "EPHEMERIS_TYPE": 0, "CLASSIFICATION_TYPE": "U", "NORAD_CAT_ID": 42969, "ELEMENT_SET_NO": 999, "REV_AT_EPOCH": 42174, "BSTAR": 7.3942e-05, "MEAN_MOTION_DOT": 1.12e-06, "MEAN_MOTION_DDOT": 0}, "tle": {"line1": "1 42969U 17064A   25337.11022139  .00000112  00000+0  73942-4 0  9999", "line2": "2 42969  98.7769 275.7804 0000945  85.6828 274.4456 14.19513401421745"}}, "geometry": {"type": "Point", "coordinates": [-74.57268095862214, -46.30950725648315]}}, {"type": "Feature", "properties": {"norad_id": 42987, "name": "SKYSAT-C11", "group": "resource", "lat": 52.51471154313143, "lon": -55.50525637478892, "alt_km": 420.47738293121256, "timestamp": "2025-12-03T10:52:57.107355+00:00", "meta": {"OBJECT_NAME": "SKYSAT-C11", "OBJECT_ID": "2017-068A", "EPOCH": "2025-12-02T21:54:56.744064", "MEAN_MOTION": 15.46817041, "ECCENTRICITY": 9.46e-05, "INCLINATION": 97.4134, "RA_OF_ASC_NODE": 114.1667, "ARG_OF_PERICENTER": 117.2528, "MEAN_ANOMALY": 242.8818, "EPHEMERIS_TYPE": 0, "CLASSIFICATION_TYPE": "U", "NORAD_CAT_ID": 42987, "ELEMENT_SET_NO": 999, "REV_AT_EPOCH": 45279, "BSTAR": 0.00055886, "MEAN_MOTION_DOT": 0.00028006, "MEAN_MOTION_DDOT": 0}, "tle": {"line1": "1 42987U 17068A   25336.91315676  .00028006  00000+0  55886-3 0  9999", "line2": "2 42987  97.4134 114.1667 0000946 117.2528 242.8818 15.46817041452798"}}, "geometry": {"type": "Point", "coordinates": [-55.50525637478892, 52.51471154313143]}}, {"type": "Feature", "properties": {"norad_id": 42988, "name": "SKYSAT-C10", "group": "resource", "lat": -4.467605444797808, "lon": 108.86480184996648, "alt_km": 475.6587194595277, "timestamp": "2025-12-03T10:52:57.107365+00:00", "meta": {"OBJECT_NAME": "SKYSAT-C10", "OBJECT_ID": "2017-068B", "EPOCH": "2025-12-02T22:21:40.538016", "MEAN_MOTION": 15.31972305, "ECCENTRICITY": 0.0005485, "INCLINATION": 97.4254, "RA_OF_ASC_NODE": 107.758, "ARG_OF_PERICENTER": 121.5944, "MEAN_ANOMALY": 238.5834, "EPHEMERIS_TYPE": 0, "CLASSIFICATION_TYPE": "U", "NORAD_CAT_ID": 42988, "ELEMENT_SET_NO": 999, "REV_AT_EPOCH": 45229, "BSTAR": 0.00048524, "MEAN_MOTION_DOT": 0.0001492, "MEAN_MOTION_DDOT": 0}, "tle": {"line1": "1 42988U 17068B   25336.93171919  .00014920  00000+0  48524-3 0  9993", "line2": "2 42988  97.4254 107.7580 0005485 121.5944 238.5834 15.31972305452291"}}, "geometry": {"type": "Point", "coordinates": [108.86480184996648, -4.467605444797808]}}, {"type": "Feature", "properties": {"norad_id": 42989, "name": "SKYSAT-C9", "group": "resource", "lat": 70.10405558331065, "lon": 86.53681530313021, "alt_km": 447.13763281258616, "timestamp": "2025-12-03T10:52:57.107376+00:00", "meta": {"OBJECT_NAME": "SKYSAT-C9", "OBJECT_ID": "2017-068C", "EPOCH": "2025-12-02T22:03:41.644800", "MEAN_MOTION": 15.35649626, "ECCENTRICITY": 0.0010642, "INCLINATION": 97.418, "RA_OF_ASC_NODE": 107.099, "ARG_OF_PERICENTER": 119.7338, "MEAN_ANOMALY": 240.4966, "EPHEMERIS_TYPE": 0, "CLASSIFICATION_TYPE": "U", "NORAD_CAT_ID": 42989, "ELEMENT_SET_NO": 999, "REV_AT_EPOCH": 45257, "BSTAR": 0.00050864, "MEAN_MOTION_DOT": 0.00017601, "MEAN_MOTION_DDOT": 0}, "tle": {"line1": "1 42989U 17068C   25336.91923200  .00017601  00000+0  50864-3 0  9999", "line2": "2 42989  97.4180 107.0990 0010642 119.7338 240.4966 15.35649626452575"}}, "geometry": {"type": "Point", "coordinates": [86.53681530313021, 70.10405558331065]}}, {"type": "Feature", "properties": {"norad_id": 42990, "name": "SKYSAT-C8", "group": "resource", "lat": 33.49935387092201, "lon": -67.63073711865941, "alt_km": 466.94061604072795, "timestamp": "2025-12-03T10:52:57.107386+00:00", "meta": {"OBJECT_NAME": "SKYSAT-C8", "OBJECT_ID": "2017-068D", "EPOCH": "2025-12-03T02:24:44.616096", "MEAN_MOTION": 15.32583591, "ECCENTRICITY": 0.0002147, "INCLINATION": 97.4276, "RA_OF_ASC_NODE": 107.0616, "ARG_OF_PERICENTER": 21.308, "MEAN_ANOMALY": 338.8251, "EPHEMERIS_TYPE": 0, "CLASSIFICATION_TYPE": "U", "NORAD_CAT_ID": 42990, "ELEMENT_SET_NO": 999, "REV_AT_EPOCH": 45223, "BSTAR": 0.00050056, "MEAN_MOTION_DOT": 0.00015687, "MEAN_MOTION_DDOT": 0}, "tle": {"line1": "1 42990U 17068D   25337.10051639  .00015687  00000+0  50056-3 0  9996", "line2": "2 42990  97.4276 107.0616 0002147  21.3080 338.8251 15.32583591452238"}}, "geometry": {"type": "Point", "coordinates": [-67.63073711865941, 33.49935387092201]}}, {"type": "Feature", "properties": {"norad_id": 42991, "name": "SKYSAT-C7", "group": "resource", "lat": 20.894179849278945, "lon": 105.60967015773475, "alt_km": 467.5562430548316, "timestamp": "2025-12-03T10:52:57.107396+00:00", "meta": {"OBJECT_NAME": "SKYSAT-C7", "OBJECT_ID": "2017-068E", "EPOCH": "2025-12-03T02:57:10.325088", "MEAN_MOTION": 15.31993019, "ECCENTRICITY": 0.0007862, "INCLINATION": 97.4281, "RA_OF_ASC_NODE": 108.1332, "ARG_OF_PERICENTER": 87.0209, "MEAN_ANOMALY": 273.1932, "EPHEMERIS_TYPE": 0, "CLASSIFICATION_TYPE": "U", "NORAD_CAT_ID": 42991, "ELEMENT_SET_NO": 999, "REV_AT_EPOCH": 45230, "BSTAR": 0.00051572, "MEAN_MOTION_DOT": 0.00015882, "MEAN_MOTION_DDOT": 0}, "tle": {"line1": "1 42991U 17068E   25337.12303617  .00015882  00000+0  51572-3 0  9996", "line2": "2 42991  97.4281 108.1332 0007862  87.0209 273.1932 15.31993019452307"}}, "geometry": {"type": "Point", "coordinates": [105.60967015773475, 20.894179849278945]}}, {"type": "Feature", "properties": {"norad_id": 42992, "name": "SKYSAT-C6", "group": "resource", "lat": 13.822529453203552, "lon": -69.24926332174309, "alt_km": 471.5052542349922, "timestamp": "2025-12-03T10:52:57.107407+00:00", "meta": {"OBJECT_NAME": "SKYSAT-C6", "OBJECT_ID": "2017-068F", "EPOCH": "2025-12-03T03:53:12.595776", "MEAN_MOTION": 15.31172293, "ECCENTRICITY": 0.0005156, "INCLINATION": 97.4315, "RA_OF_ASC_NODE": 108.6183, "ARG_OF_PERICENTER": 109.8122, "MEAN_ANOMALY": 250.3675, "EPHEMERIS_TYPE": 0, "CLASSIFICATION_TYPE": "U", "NORAD_CAT_ID": 42992, "ELEMENT_SET_NO": 999, "REV_AT_EPOCH": 45229, "BSTAR": 0.00047963, "MEAN_MOTION_DOT": 0.00014382, "MEAN_MOTION_DDOT": 0}, "tle": {"line1": "1 42992U 17068F   25337.16195134  .00014382  00000+0  47963-3 0  9997", "line2": "2 42992  97.4315 108.6183 0005156 109.8122 250.3675 15.31172293452298"}}, "geometry": {"type": "Point", "coordinates": [-69.24926332174309, 13.822529453203552]}}, {"type": "Feature", "properties": {"norad_id": 43111, "name": "CARTOSAT-2F", "group": "resource", "lat": -42.939393604590286, "lon": 42.21858553752673, "alt_km": 514.9723288352661, "timestamp": "2025-12-03T10:52:57.107417+00:00", "meta": {"OBJECT_NAME": "CARTOSAT-2F", "OBJECT_ID": "2018-004A", "EPOCH": "2025-12-03T06:19:52.725216", "MEAN_MOTION": 15.19348937, "ECCENTRICITY": 0.0001114, "INCLINATION": 97.433, "RA_OF_ASC_NODE": 35.0541, "ARG_OF_PERICENTER": 190.371, "MEAN_ANOMALY": 169.7502, "EPHEMERIS_TYPE": 0, "CLASSIFICATION_TYPE": "U", "NORAD_CAT_ID": 43111, "ELEMENT_SET_NO": 999, "REV_AT_EPOCH": 43758, "BSTAR": 7.2711e-05, "MEAN_MOTION_DOT": 1.469e-05, "MEAN_MOTION_DDOT": 0}, "tle": {"line1": "1 43111U 18004A   25337.26380469  .00001469  00000+0  72711-4 0  9992", "line2": "2 43111  97.4330  35.0541 0001114 190.3710 169.7502 15.19348937437581"}}, "geometry": {"type": "Point", "coordinates": [42.21858553752673, -42.939393604590286]}}, {"type": "Feature", "properties": {"norad_id": 43259, "name": "GAOFEN-1 02", "group": "resource", "lat": 68.65667619143089, "lon": 13.914449507302383, "alt_km": 634.7845587194188, "timestamp": "2025-12-03T10:52:57.107429+00:00", "meta": {"OBJECT_NAME": "GAOFEN-1 02", "OBJECT_ID": "2018-031A", "EPOCH": "2025-12-03T04:03:35.074944", "MEAN_MOTION": 14.76447043, "ECCENTRICITY": 0.0001296, "INCLINATION": 98.082, "RA_OF_ASC_NODE": 34.9542, "ARG_OF_PERICENTER": 259.4744, "MEAN_ANOMALY": 100.632, "EPHEMERIS_TYPE": 0, "CLASSIFICATION_TYPE": "U", "NORAD_CAT_ID": 43259, "ELEMENT_SET_NO": 999, "REV_AT_EPOCH": 41377, "BSTAR": 0.00020065, "MEAN_MOTION_DOT": 1.344e-05, "MEAN_MOTION_DDOT": 0}, "tle": {"line1": "1 43259U 18031A   25337.16915596  .00001344  00000+0  20065-3 0  9995", "line2": "2 43259  98.0820  34.9542 0001296 259.4744 100.6320 14.76447043413776"}}, "geometry": {"type": "Point", "coordinates": [13.914449507302383, 68.65667619143089]}}, {"type": "Feature", "properties": {"norad_id": 43260, "name": "GAOFEN-1 03", "group": "resource", "lat": -6.719693947349121, "lon": -145.84247217877348, "alt_km": 646.3804401187908, "timestamp": "2025-12-03T10:52:57.107451+00:00", "meta": {"OBJECT_NAME": "GAOFEN-1 03", "OBJECT_ID": "2018-031B", "EPOCH": "2025-12-03T05:09:35.991360", "MEAN_MOTION": 14.76403559, "ECCENTRICITY": 0.0002647, "INCLINATION": 98.0812, "RA_OF_ASC_NODE": 34.8782, "ARG_OF_PERICENTER": 359.2522, "MEAN_ANOMALY": 0.8683, "EPHEMERIS_TYPE": 0, "CLASSIFICATION_TYPE": "U", "NORAD_CAT_ID": 43260, "ELEMENT_SET_NO": 999, "REV_AT_EPOCH": 41377, "BSTAR": 0.00019757, "MEAN_MOTION_DOT": 1.321e-05, "MEAN_MOTION_DDOT": 0}, "tle": {"line1": "1 43260U 18031B   25337.21499990  .00001321  00000+0  19757-3 0  9999", "line2": "2 43260  98.0812  34.8782 0002647 359.2522   0.8683 14.76403559413775"}}, "geometry": {"type": "Point", "coordinates": [-145.84247217877348, -6.719693947349121]}}]}